sat17543
1 17543U 86019HX  20046.92533694  .00000103  00000-0  76572-4 0  9992
2 17543  98.7249 108.0080 0120612 231.4366 303.4893 14.10683653705598
